[{"OBJECT_NAME":"STARLINK-34831","OBJECT_ID":"2025-189Y","EPOCH":"2026-03-09T14:27:04.909824","MEAN_MOTION":15.30195782,"ECCENTRICITY":0.0001056,"INCLINATION":53.1574,"RA_OF_ASC_NODE":207.1267,"ARG_OF_PERICENTER":76.9728,"MEAN_ANOMALY":283.139,"EPHEMERIS_TYPE":0,"CLASSIFICATION_TYPE":"U","NORAD_CAT_ID":65345,"ELEMENT_SET_NO":999,"REV_AT_EPOCH":3110,"BSTAR":0.0014582,"MEAN_MOTION_DOT":0.00043074,"MEAN_MOTION_DDOT":0},{"OBJECT_NAME":"PEGASUS DEB","OBJECT_ID":"1994-029AG","EPOCH":"2026-03-09T11:16:42.963744","MEAN_MOTION":15.37636263,"ECCENTRICITY":0.0031206,"INCLINATION":82.0362,"RA_OF_ASC_NODE":86.2933,"ARG_OF_PERICENTER":155.6019,"MEAN_ANOMALY":204.671,"EPHEMERIS_TYPE":0,"CLASSIFICATION_TYPE":"U","NORAD_CAT_ID":23986,"ELEMENT_SET_NO":999,"REV_AT_EPOCH":61542,"BSTAR":0.00061808813,"MEAN_MOTION_DOT":0.00023279,"MEAN_MOTION_DDOT":0}]
